<?xml version="1.0" encoding="UTF-8"?>
<gpx creator="StravaGPX" version="1.1" xmlns="http://www.topografix.com/GPX/1/1" xmlns:xsi="http://www.w3.org/2001/XMLSchema-instance" xsi:schemaLocation="http://www.topografix.com/GPX/1/1 http://www.topografix.com/GPX/1/1/gpx.xsd">
 <metadata>
  <name>RTTR Current....To the Top Top</name>
  <author>
   <name>Bernard  van Táp 🐺</name>
   <link href="https://www.strava.com/athletes/358151"/>
  </author>
  <copyright author="OpenStreetMap contributors">
   <year>2020</year>
   <license>https://www.openstreetmap.org/copyright</license>
  </copyright>
  <link href="https://www.strava.com/routes/3257857005510265448"/>
 </metadata>
 <trk>
  <name>RTTR Current....To the Top Top</name>
  <link href="https://www.strava.com/routes/3257857005510265448"/>
  <type>running</type>
  <trkseg>
   <trkpt lat="37.041270000000004" lon="-122.06236000000001">
    <ele>89.08</ele>
   </trkpt>
   <trkpt lat="37.0411" lon="-122.06225">
    <ele>89.57000000000001</ele>
   </trkpt>
   <trkpt lat="37.040850000000006" lon="-122.06207">
    <ele>90.37</ele>
   </trkpt>
   <trkpt lat="37.04059" lon="-122.06185">
    <ele>90.54</ele>
   </trkpt>
   <trkpt lat="37.040490000000005" lon="-122.06206000000002">
    <ele>89.13</ele>
   </trkpt>
   <trkpt lat="37.040400000000005" lon="-122.06211">
    <ele>88.68</ele>
   </trkpt>
   <trkpt lat="37.040110000000006" lon="-122.06243">
    <ele>87.29</ele>
   </trkpt>
   <trkpt lat="37.04001" lon="-122.06262000000001">
    <ele>86.55</ele>
   </trkpt>
   <trkpt lat="37.04003" lon="-122.06278">
    <ele>84.99000000000001</ele>
   </trkpt>
   <trkpt lat="37.040060000000004" lon="-122.06286000000001">
    <ele>84.99000000000001</ele>
   </trkpt>
   <trkpt lat="37.04005" lon="-122.06283">
    <ele>85.14</ele>
   </trkpt>
   <trkpt lat="37.0401" lon="-122.06296">
    <ele>84.28</ele>
   </trkpt>
   <trkpt lat="37.04003" lon="-122.06313000000002">
    <ele>83.79</ele>
   </trkpt>
   <trkpt lat="37.039750000000005" lon="-122.06314">
    <ele>83.45</ele>
   </trkpt>
   <trkpt lat="37.039620000000006" lon="-122.06319">
    <ele>83.08</ele>
   </trkpt>
   <trkpt lat="37.03951" lon="-122.06328">
    <ele>82.24000000000001</ele>
   </trkpt>
   <trkpt lat="37.03943" lon="-122.06338000000001">
    <ele>82.24000000000001</ele>
   </trkpt>
   <trkpt lat="37.03931" lon="-122.06368">
    <ele>81.08000000000001</ele>
   </trkpt>
   <trkpt lat="37.039370000000005" lon="-122.06392000000001">
    <ele>80.56</ele>
   </trkpt>
   <trkpt lat="37.039480000000005" lon="-122.06418000000001">
    <ele>79.84</ele>
   </trkpt>
   <trkpt lat="37.03945" lon="-122.06437000000001">
    <ele>76.96</ele>
   </trkpt>
   <trkpt lat="37.039210000000004" lon="-122.06418000000001">
    <ele>77.78</ele>
   </trkpt>
   <trkpt lat="37.0388" lon="-122.06403000000002">
    <ele>76.11000000000001</ele>
   </trkpt>
   <trkpt lat="37.03831" lon="-122.06408">
    <ele>74.75000000000001</ele>
   </trkpt>
   <trkpt lat="37.038180000000004" lon="-122.06405000000001">
    <ele>74.79</ele>
   </trkpt>
   <trkpt lat="37.037760000000006" lon="-122.0639">
    <ele>74.7</ele>
   </trkpt>
   <trkpt lat="37.037400000000005" lon="-122.06378000000001">
    <ele>74.03000000000002</ele>
   </trkpt>
   <trkpt lat="37.037200000000006" lon="-122.06345">
    <ele>73.85000000000001</ele>
   </trkpt>
   <trkpt lat="37.03712" lon="-122.06318000000002">
    <ele>74.21000000000001</ele>
   </trkpt>
   <trkpt lat="37.036970000000004" lon="-122.06283">
    <ele>74.25000000000001</ele>
   </trkpt>
   <trkpt lat="37.03694" lon="-122.06278">
    <ele>74.25000000000001</ele>
   </trkpt>
   <trkpt lat="37.036860000000004" lon="-122.06275000000001">
    <ele>74.4</ele>
   </trkpt>
   <trkpt lat="37.03681" lon="-122.06266000000001">
    <ele>74.4</ele>
   </trkpt>
   <trkpt lat="37.03658" lon="-122.06229">
    <ele>74.59</ele>
   </trkpt>
   <trkpt lat="37.03649" lon="-122.06225">
    <ele>74.55</ele>
   </trkpt>
   <trkpt lat="37.036100000000005" lon="-122.06189">
    <ele>73.92</ele>
   </trkpt>
   <trkpt lat="37.03598" lon="-122.06166">
    <ele>74.28000000000002</ele>
   </trkpt>
   <trkpt lat="37.035920000000004" lon="-122.06161000000002">
    <ele>74.39000000000001</ele>
   </trkpt>
   <trkpt lat="37.03573" lon="-122.06111000000001">
    <ele>74.68</ele>
   </trkpt>
   <trkpt lat="37.0354" lon="-122.06037">
    <ele>75.36000000000001</ele>
   </trkpt>
   <trkpt lat="37.03524" lon="-122.05984000000001">
    <ele>75.2</ele>
   </trkpt>
   <trkpt lat="37.035210000000006" lon="-122.05947">
    <ele>75.22000000000001</ele>
   </trkpt>
   <trkpt lat="37.035000000000004" lon="-122.05925">
    <ele>75.26</ele>
   </trkpt>
   <trkpt lat="37.03484" lon="-122.05902">
    <ele>76.06</ele>
   </trkpt>
   <trkpt lat="37.034670000000006" lon="-122.05867">
    <ele>76.29</ele>
   </trkpt>
   <trkpt lat="37.0343" lon="-122.05826">
    <ele>75.66</ele>
   </trkpt>
   <trkpt lat="37.03414" lon="-122.05818000000001">
    <ele>75.22000000000001</ele>
   </trkpt>
   <trkpt lat="37.033840000000005" lon="-122.05789000000001">
    <ele>75.41</ele>
   </trkpt>
   <trkpt lat="37.033770000000004" lon="-122.05786">
    <ele>75.64000000000001</ele>
   </trkpt>
   <trkpt lat="37.03326500063001" lon="-122.05745499726014">
    <ele>74.4</ele>
   </trkpt>
   <trkpt lat="37.03276" lon="-122.05705">
    <ele>74.43</ele>
   </trkpt>
   <trkpt lat="37.03273" lon="-122.05698000000001">
    <ele>74.43</ele>
   </trkpt>
   <trkpt lat="37.032680000000006" lon="-122.05696">
    <ele>74.54</ele>
   </trkpt>
   <trkpt lat="37.03228" lon="-122.05665">
    <ele>76.51</ele>
   </trkpt>
   <trkpt lat="37.03202" lon="-122.05634">
    <ele>77.73</ele>
   </trkpt>
   <trkpt lat="37.03159" lon="-122.05608000000001">
    <ele>76.73</ele>
   </trkpt>
   <trkpt lat="37.03125" lon="-122.05584">
    <ele>76.55000000000001</ele>
   </trkpt>
   <trkpt lat="37.03114" lon="-122.0558">
    <ele>76.46</ele>
   </trkpt>
   <trkpt lat="37.03107" lon="-122.05581000000001">
    <ele>76.25000000000001</ele>
   </trkpt>
   <trkpt lat="37.030550000000005" lon="-122.05597000000002">
    <ele>76.84</ele>
   </trkpt>
   <trkpt lat="37.03011" lon="-122.05588000000002">
    <ele>82.24000000000001</ele>
   </trkpt>
   <trkpt lat="37.03002" lon="-122.05583000000001">
    <ele>82.34</ele>
   </trkpt>
   <trkpt lat="37.02993" lon="-122.05576">
    <ele>83.75</ele>
   </trkpt>
   <trkpt lat="37.02976" lon="-122.05571">
    <ele>88.27</ele>
   </trkpt>
   <trkpt lat="37.02966" lon="-122.05563000000001">
    <ele>89.83</ele>
   </trkpt>
   <trkpt lat="37.0296" lon="-122.05557">
    <ele>90.29</ele>
   </trkpt>
   <trkpt lat="37.029500000000006" lon="-122.05526">
    <ele>94.60000000000001</ele>
   </trkpt>
   <trkpt lat="37.029430000000005" lon="-122.05522">
    <ele>97.04</ele>
   </trkpt>
   <trkpt lat="37.02928" lon="-122.05521000000002">
    <ele>101.05000000000001</ele>
   </trkpt>
   <trkpt lat="37.029" lon="-122.05522">
    <ele>107.17000000000002</ele>
   </trkpt>
   <trkpt lat="37.028710000000004" lon="-122.05521000000002">
    <ele>111.68</ele>
   </trkpt>
   <trkpt lat="37.02861" lon="-122.05523000000001">
    <ele>112.75</ele>
   </trkpt>
   <trkpt lat="37.02859" lon="-122.05530000000002">
    <ele>113.21000000000001</ele>
   </trkpt>
   <trkpt lat="37.028600000000004" lon="-122.0554">
    <ele>114.09</ele>
   </trkpt>
   <trkpt lat="37.02864" lon="-122.05549">
    <ele>115.35000000000001</ele>
   </trkpt>
   <trkpt lat="37.028870000000005" lon="-122.05584">
    <ele>123.06000000000002</ele>
   </trkpt>
   <trkpt lat="37.02893" lon="-122.05598">
    <ele>125.10000000000001</ele>
   </trkpt>
   <trkpt lat="37.02895" lon="-122.05617000000001">
    <ele>129.78</ele>
   </trkpt>
   <trkpt lat="37.028940000000006" lon="-122.05647">
    <ele>135.73000000000002</ele>
   </trkpt>
   <trkpt lat="37.0289" lon="-122.05656">
    <ele>135.73000000000002</ele>
   </trkpt>
   <trkpt lat="37.028830000000006" lon="-122.0566">
    <ele>139.90000000000003</ele>
   </trkpt>
   <trkpt lat="37.028690000000005" lon="-122.0566">
    <ele>141.9</ele>
   </trkpt>
   <trkpt lat="37.02853" lon="-122.05664000000002">
    <ele>145.57</ele>
   </trkpt>
   <trkpt lat="37.02846" lon="-122.0566">
    <ele>145.57</ele>
   </trkpt>
   <trkpt lat="37.028000000000006" lon="-122.05622000000001">
    <ele>156.65</ele>
   </trkpt>
   <trkpt lat="37.02785" lon="-122.05626000000001">
    <ele>159.12</ele>
   </trkpt>
   <trkpt lat="37.02774" lon="-122.05625">
    <ele>160.88000000000002</ele>
   </trkpt>
   <trkpt lat="37.02749" lon="-122.05615000000002">
    <ele>167.16</ele>
   </trkpt>
   <trkpt lat="37.027240000000006" lon="-122.05607">
    <ele>170.86</ele>
   </trkpt>
   <trkpt lat="37.02713" lon="-122.05602">
    <ele>172.75</ele>
   </trkpt>
   <trkpt lat="37.02694" lon="-122.05589">
    <ele>175.18</ele>
   </trkpt>
   <trkpt lat="37.02671" lon="-122.05566">
    <ele>177.3</ele>
   </trkpt>
   <trkpt lat="37.02655" lon="-122.05557">
    <ele>178.85</ele>
   </trkpt>
   <trkpt lat="37.026390000000006" lon="-122.05544">
    <ele>181.67000000000002</ele>
   </trkpt>
   <trkpt lat="37.026230000000005" lon="-122.05535">
    <ele>183.39000000000001</ele>
   </trkpt>
   <trkpt lat="37.026" lon="-122.05529000000001">
    <ele>189.63000000000002</ele>
   </trkpt>
   <trkpt lat="37.025960000000005" lon="-122.05526">
    <ele>189.62</ele>
   </trkpt>
   <trkpt lat="37.025870000000005" lon="-122.05526">
    <ele>189.46</ele>
   </trkpt>
   <trkpt lat="37.0257" lon="-122.05499">
    <ele>188.22000000000003</ele>
   </trkpt>
   <trkpt lat="37.02561" lon="-122.05468">
    <ele>186.98</ele>
   </trkpt>
   <trkpt lat="37.025510000000004" lon="-122.05459">
    <ele>187.02</ele>
   </trkpt>
   <trkpt lat="37.025400000000005" lon="-122.05454">
    <ele>187.00000000000003</ele>
   </trkpt>
   <trkpt lat="37.02532" lon="-122.05442000000001">
    <ele>186.46</ele>
   </trkpt>
   <trkpt lat="37.025290000000005" lon="-122.05437">
    <ele>186.15</ele>
   </trkpt>
   <trkpt lat="37.025310000000005" lon="-122.05428">
    <ele>185.77</ele>
   </trkpt>
   <trkpt lat="37.02526" lon="-122.05414">
    <ele>184.87</ele>
   </trkpt>
   <trkpt lat="37.02526" lon="-122.05405">
    <ele>183.35000000000002</ele>
   </trkpt>
   <trkpt lat="37.02521" lon="-122.05396">
    <ele>182.44000000000003</ele>
   </trkpt>
   <trkpt lat="37.025130000000004" lon="-122.05393000000001">
    <ele>181.78000000000003</ele>
   </trkpt>
   <trkpt lat="37.02507" lon="-122.05388">
    <ele>181.57</ele>
   </trkpt>
   <trkpt lat="37.024930000000005" lon="-122.05369">
    <ele>181.47000000000003</ele>
   </trkpt>
   <trkpt lat="37.024800000000006" lon="-122.0536">
    <ele>181.98</ele>
   </trkpt>
   <trkpt lat="37.02469" lon="-122.05339000000001">
    <ele>182.47000000000003</ele>
   </trkpt>
   <trkpt lat="37.02467" lon="-122.0532">
    <ele>183.2</ele>
   </trkpt>
   <trkpt lat="37.02461" lon="-122.05311">
    <ele>183.9</ele>
   </trkpt>
   <trkpt lat="37.02469" lon="-122.05311">
    <ele>183.85000000000002</ele>
   </trkpt>
   <trkpt lat="37.02461" lon="-122.05311">
    <ele>183.9</ele>
   </trkpt>
   <trkpt lat="37.024240000000006" lon="-122.05317000000001">
    <ele>183.65</ele>
   </trkpt>
   <trkpt lat="37.023810000000005" lon="-122.05315000000002">
    <ele>182.67000000000002</ele>
   </trkpt>
   <trkpt lat="37.02371" lon="-122.05307">
    <ele>182.32</ele>
   </trkpt>
   <trkpt lat="37.02357000000001" lon="-122.05289">
    <ele>181.3</ele>
   </trkpt>
   <trkpt lat="37.02356" lon="-122.05281000000001">
    <ele>180.72000000000003</ele>
   </trkpt>
   <trkpt lat="37.02349" lon="-122.05272000000001">
    <ele>179.99</ele>
   </trkpt>
   <trkpt lat="37.02342" lon="-122.05244">
    <ele>177.76</ele>
   </trkpt>
   <trkpt lat="37.02338" lon="-122.0524">
    <ele>176.96</ele>
   </trkpt>
   <trkpt lat="37.023340000000005" lon="-122.05223000000001">
    <ele>176.32</ele>
   </trkpt>
   <trkpt lat="37.0232" lon="-122.05204">
    <ele>175.44</ele>
   </trkpt>
   <trkpt lat="37.023140000000005" lon="-122.05182">
    <ele>175.25</ele>
   </trkpt>
   <trkpt lat="37.023070000000004" lon="-122.05101">
    <ele>175.19</ele>
   </trkpt>
   <trkpt lat="37.02304" lon="-122.05087">
    <ele>175.32</ele>
   </trkpt>
   <trkpt lat="37.02308" lon="-122.05038">
    <ele>175.95000000000002</ele>
   </trkpt>
   <trkpt lat="37.02304" lon="-122.05016">
    <ele>176.11</ele>
   </trkpt>
   <trkpt lat="37.02304" lon="-122.05007">
    <ele>176.02</ele>
   </trkpt>
   <trkpt lat="37.022940000000006" lon="-122.04985">
    <ele>175.22</ele>
   </trkpt>
   <trkpt lat="37.02277" lon="-122.04962">
    <ele>172.66</ele>
   </trkpt>
   <trkpt lat="37.02279" lon="-122.04958">
    <ele>172.66</ele>
   </trkpt>
   <trkpt lat="37.02277" lon="-122.04948000000002">
    <ele>172.1</ele>
   </trkpt>
   <trkpt lat="37.02279" lon="-122.04932000000001">
    <ele>172.18000000000004</ele>
   </trkpt>
   <trkpt lat="37.022830000000006" lon="-122.04923000000001">
    <ele>172.89000000000001</ele>
   </trkpt>
   <trkpt lat="37.022830000000006" lon="-122.04904">
    <ele>175.04</ele>
   </trkpt>
   <trkpt lat="37.022780000000004" lon="-122.04885000000002">
    <ele>176.3</ele>
   </trkpt>
   <trkpt lat="37.022760000000005" lon="-122.04855">
    <ele>176.96</ele>
   </trkpt>
   <trkpt lat="37.022710000000004" lon="-122.04842000000001">
    <ele>176.8</ele>
   </trkpt>
   <trkpt lat="37.02268" lon="-122.04837">
    <ele>176.8</ele>
   </trkpt>
   <trkpt lat="37.022580000000005" lon="-122.04832">
    <ele>176.77</ele>
   </trkpt>
   <trkpt lat="37.02244" lon="-122.04832">
    <ele>176.8</ele>
   </trkpt>
   <trkpt lat="37.022310000000004" lon="-122.04828">
    <ele>176.97</ele>
   </trkpt>
   <trkpt lat="37.02212" lon="-122.04815">
    <ele>176.97</ele>
   </trkpt>
   <trkpt lat="37.021800000000006" lon="-122.04757000000001">
    <ele>175.87000000000003</ele>
   </trkpt>
   <trkpt lat="37.02168" lon="-122.04743">
    <ele>175.68</ele>
   </trkpt>
   <trkpt lat="37.021330000000006" lon="-122.04716">
    <ele>175.79</ele>
   </trkpt>
   <trkpt lat="37.021080000000005" lon="-122.04689">
    <ele>176.55</ele>
   </trkpt>
   <trkpt lat="37.020830000000004" lon="-122.04668000000001">
    <ele>177.69</ele>
   </trkpt>
   <trkpt lat="37.02069" lon="-122.04653">
    <ele>178.02</ele>
   </trkpt>
   <trkpt lat="37.02049" lon="-122.04641000000001">
    <ele>177.39000000000001</ele>
   </trkpt>
   <trkpt lat="37.02024" lon="-122.04635">
    <ele>175.81000000000003</ele>
   </trkpt>
   <trkpt lat="37.01991" lon="-122.04621000000002">
    <ele>171.83</ele>
   </trkpt>
   <trkpt lat="37.019850000000005" lon="-122.04621000000002">
    <ele>171.83</ele>
   </trkpt>
   <trkpt lat="37.01953" lon="-122.04604">
    <ele>167.13</ele>
   </trkpt>
   <trkpt lat="37.0193" lon="-122.04595">
    <ele>166.44</ele>
   </trkpt>
   <trkpt lat="37.019220000000004" lon="-122.04585000000002">
    <ele>165.87</ele>
   </trkpt>
   <trkpt lat="37.01921" lon="-122.04574000000001">
    <ele>165.48000000000002</ele>
   </trkpt>
   <trkpt lat="37.01915" lon="-122.04564">
    <ele>165.28</ele>
   </trkpt>
   <trkpt lat="37.019110000000005" lon="-122.04545000000002">
    <ele>165.24</ele>
   </trkpt>
   <trkpt lat="37.01916000000001" lon="-122.04528">
    <ele>165.34</ele>
   </trkpt>
   <trkpt lat="37.01932" lon="-122.04496">
    <ele>165.61</ele>
   </trkpt>
   <trkpt lat="37.019600000000004" lon="-122.04466000000001">
    <ele>165.97</ele>
   </trkpt>
   <trkpt lat="37.01963000000001" lon="-122.04461">
    <ele>166.04000000000002</ele>
   </trkpt>
   <trkpt lat="37.01963000000001" lon="-122.04443">
    <ele>166.08</ele>
   </trkpt>
   <trkpt lat="37.01961" lon="-122.04434">
    <ele>166.17000000000002</ele>
   </trkpt>
   <trkpt lat="37.019510000000004" lon="-122.04426000000001">
    <ele>166.36</ele>
   </trkpt>
   <trkpt lat="37.019270000000006" lon="-122.04424000000002">
    <ele>166.98000000000002</ele>
   </trkpt>
   <trkpt lat="37.019220000000004" lon="-122.0442">
    <ele>167.03</ele>
   </trkpt>
   <trkpt lat="37.019110000000005" lon="-122.04415000000002">
    <ele>167.0</ele>
   </trkpt>
   <trkpt lat="37.018800000000006" lon="-122.04403">
    <ele>167.16</ele>
   </trkpt>
   <trkpt lat="37.018750000000004" lon="-122.04389">
    <ele>167.33</ele>
   </trkpt>
   <trkpt lat="37.0187" lon="-122.04384">
    <ele>167.47</ele>
   </trkpt>
   <trkpt lat="37.01865" lon="-122.04383000000001">
    <ele>167.47</ele>
   </trkpt>
   <trkpt lat="37.01874" lon="-122.04371">
    <ele>168.34</ele>
   </trkpt>
   <trkpt lat="37.01876" lon="-122.04358">
    <ele>168.88</ele>
   </trkpt>
   <trkpt lat="37.01881" lon="-122.04359000000001">
    <ele>168.88</ele>
   </trkpt>
   <trkpt lat="37.018860000000004" lon="-122.04358">
    <ele>170.79000000000002</ele>
   </trkpt>
   <trkpt lat="37.018910000000005" lon="-122.04353">
    <ele>170.79000000000002</ele>
   </trkpt>
   <trkpt lat="37.01917" lon="-122.0434">
    <ele>174.44</ele>
   </trkpt>
   <trkpt lat="37.019650000000006" lon="-122.04327">
    <ele>181.48</ele>
   </trkpt>
   <trkpt lat="37.019940000000005" lon="-122.04331">
    <ele>182.61</ele>
   </trkpt>
   <trkpt lat="37.020210000000006" lon="-122.0434">
    <ele>183.00000000000003</ele>
   </trkpt>
   <trkpt lat="37.02038" lon="-122.0434">
    <ele>183.44000000000003</ele>
   </trkpt>
   <trkpt lat="37.02051" lon="-122.04345">
    <ele>184.15</ele>
   </trkpt>
   <trkpt lat="37.02071" lon="-122.04349">
    <ele>186.04000000000002</ele>
   </trkpt>
   <trkpt lat="37.02074" lon="-122.04353">
    <ele>186.04000000000002</ele>
   </trkpt>
   <trkpt lat="37.02091" lon="-122.04358">
    <ele>188.09</ele>
   </trkpt>
   <trkpt lat="37.02112" lon="-122.04354000000001">
    <ele>191.13000000000002</ele>
   </trkpt>
   <trkpt lat="37.021640000000005" lon="-122.04335">
    <ele>200.26000000000002</ele>
   </trkpt>
   <trkpt lat="37.02169" lon="-122.04323000000001">
    <ele>201.27</ele>
   </trkpt>
   <trkpt lat="37.021800000000006" lon="-122.04313">
    <ele>202.08</ele>
   </trkpt>
   <trkpt lat="37.022130000000004" lon="-122.04299">
    <ele>204.62000000000003</ele>
   </trkpt>
   <trkpt lat="37.02237" lon="-122.04294000000002">
    <ele>205.41</ele>
   </trkpt>
   <trkpt lat="37.02263" lon="-122.0429">
    <ele>205.79000000000002</ele>
   </trkpt>
   <trkpt lat="37.02275" lon="-122.0429">
    <ele>205.93000000000004</ele>
   </trkpt>
   <trkpt lat="37.02282" lon="-122.04294000000002">
    <ele>206.03</ele>
   </trkpt>
   <trkpt lat="37.023210000000006" lon="-122.04281">
    <ele>207.14000000000001</ele>
   </trkpt>
   <trkpt lat="37.023250000000004" lon="-122.04277">
    <ele>207.14000000000001</ele>
   </trkpt>
   <trkpt lat="37.023520000000005" lon="-122.04273">
    <ele>208.19</ele>
   </trkpt>
   <trkpt lat="37.02364" lon="-122.04268">
    <ele>208.64000000000001</ele>
   </trkpt>
   <trkpt lat="37.02373" lon="-122.04268">
    <ele>209.86</ele>
   </trkpt>
   <trkpt lat="37.02382" lon="-122.04268">
    <ele>210.08</ele>
   </trkpt>
   <trkpt lat="37.023990000000005" lon="-122.04277">
    <ele>210.64000000000001</ele>
   </trkpt>
   <trkpt lat="37.024240000000006" lon="-122.04286">
    <ele>210.14000000000001</ele>
   </trkpt>
   <trkpt lat="37.02469" lon="-122.04294000000002">
    <ele>207.62000000000003</ele>
   </trkpt>
   <trkpt lat="37.02474" lon="-122.04295">
    <ele>207.5</ele>
   </trkpt>
   <trkpt lat="37.02481" lon="-122.04305000000001">
    <ele>207.39000000000001</ele>
   </trkpt>
   <trkpt lat="37.024890000000006" lon="-122.04313">
    <ele>207.45000000000002</ele>
   </trkpt>
   <trkpt lat="37.025090000000006" lon="-122.04326">
    <ele>208.23000000000002</ele>
   </trkpt>
   <trkpt lat="37.02541" lon="-122.04366000000002">
    <ele>213.21</ele>
   </trkpt>
   <trkpt lat="37.025510000000004" lon="-122.04375000000002">
    <ele>213.21</ele>
   </trkpt>
   <trkpt lat="37.02554000000001" lon="-122.04374000000001">
    <ele>213.21</ele>
   </trkpt>
   <trkpt lat="37.025780000000005" lon="-122.04389">
    <ele>216.49</ele>
   </trkpt>
   <trkpt lat="37.02588" lon="-122.04390000000001">
    <ele>216.8</ele>
   </trkpt>
   <trkpt lat="37.02599" lon="-122.04389">
    <ele>217.93</ele>
   </trkpt>
   <trkpt lat="37.0261" lon="-122.04394">
    <ele>218.91000000000003</ele>
   </trkpt>
   <trkpt lat="37.02611" lon="-122.04399000000001">
    <ele>219.81</ele>
   </trkpt>
   <trkpt lat="37.026160000000004" lon="-122.04411">
    <ele>220.29000000000002</ele>
   </trkpt>
   <trkpt lat="37.02628" lon="-122.04425">
    <ele>223.06</ele>
   </trkpt>
   <trkpt lat="37.02655" lon="-122.04443">
    <ele>228.26000000000002</ele>
   </trkpt>
   <trkpt lat="37.02667" lon="-122.04456">
    <ele>229.46</ele>
   </trkpt>
   <trkpt lat="37.026680000000006" lon="-122.0447">
    <ele>230.42000000000002</ele>
   </trkpt>
   <trkpt lat="37.02666" lon="-122.04487">
    <ele>230.83</ele>
   </trkpt>
   <trkpt lat="37.026610000000005" lon="-122.04497">
    <ele>233.49000000000004</ele>
   </trkpt>
   <trkpt lat="37.026500000000006" lon="-122.04506">
    <ele>233.49000000000004</ele>
   </trkpt>
   <trkpt lat="37.0261" lon="-122.04527000000002">
    <ele>234.92000000000002</ele>
   </trkpt>
   <trkpt lat="37.02601000000001" lon="-122.04541">
    <ele>235.53</ele>
   </trkpt>
   <trkpt lat="37.025980000000004" lon="-122.04541">
    <ele>235.53</ele>
   </trkpt>
   <trkpt lat="37.025830000000006" lon="-122.04559">
    <ele>237.43000000000004</ele>
   </trkpt>
   <trkpt lat="37.02582" lon="-122.04565000000001">
    <ele>238.54000000000002</ele>
   </trkpt>
   <trkpt lat="37.02586" lon="-122.04577">
    <ele>239.79000000000002</ele>
   </trkpt>
   <trkpt lat="37.02606" lon="-122.04588000000001">
    <ele>243.03000000000003</ele>
   </trkpt>
   <trkpt lat="37.02586" lon="-122.04577">
    <ele>239.79000000000002</ele>
   </trkpt>
   <trkpt lat="37.02582" lon="-122.04565000000001">
    <ele>238.54000000000002</ele>
   </trkpt>
   <trkpt lat="37.025830000000006" lon="-122.04559">
    <ele>237.43000000000004</ele>
   </trkpt>
   <trkpt lat="37.025980000000004" lon="-122.04541">
    <ele>235.53</ele>
   </trkpt>
   <trkpt lat="37.02601000000001" lon="-122.04541">
    <ele>235.53</ele>
   </trkpt>
   <trkpt lat="37.0261" lon="-122.04527000000002">
    <ele>234.92000000000002</ele>
   </trkpt>
   <trkpt lat="37.026500000000006" lon="-122.04506">
    <ele>233.49000000000004</ele>
   </trkpt>
   <trkpt lat="37.026610000000005" lon="-122.04497">
    <ele>233.49000000000004</ele>
   </trkpt>
   <trkpt lat="37.02666" lon="-122.04487">
    <ele>230.83</ele>
   </trkpt>
   <trkpt lat="37.026680000000006" lon="-122.0447">
    <ele>230.42000000000002</ele>
   </trkpt>
   <trkpt lat="37.02667" lon="-122.04456">
    <ele>229.46</ele>
   </trkpt>
   <trkpt lat="37.02655" lon="-122.04443">
    <ele>228.26000000000002</ele>
   </trkpt>
   <trkpt lat="37.02628" lon="-122.04425">
    <ele>223.06</ele>
   </trkpt>
   <trkpt lat="37.026160000000004" lon="-122.04411">
    <ele>220.81</ele>
   </trkpt>
   <trkpt lat="37.02611" lon="-122.04399000000001">
    <ele>219.81</ele>
   </trkpt>
   <trkpt lat="37.0261" lon="-122.04394">
    <ele>218.91000000000003</ele>
   </trkpt>
   <trkpt lat="37.02599" lon="-122.04389">
    <ele>217.93</ele>
   </trkpt>
   <trkpt lat="37.02588" lon="-122.04390000000001">
    <ele>216.8</ele>
   </trkpt>
   <trkpt lat="37.025780000000005" lon="-122.04389">
    <ele>216.8</ele>
   </trkpt>
   <trkpt lat="37.02554000000001" lon="-122.04374000000001">
    <ele>213.21</ele>
   </trkpt>
   <trkpt lat="37.025510000000004" lon="-122.04375000000002">
    <ele>213.21</ele>
   </trkpt>
   <trkpt lat="37.02541" lon="-122.04366000000002">
    <ele>213.21</ele>
   </trkpt>
   <trkpt lat="37.025090000000006" lon="-122.04326">
    <ele>208.50000000000003</ele>
   </trkpt>
   <trkpt lat="37.02488" lon="-122.04313">
    <ele>207.45000000000002</ele>
   </trkpt>
   <trkpt lat="37.02474" lon="-122.04295">
    <ele>207.5</ele>
   </trkpt>
   <trkpt lat="37.02469" lon="-122.04294000000002">
    <ele>207.79000000000002</ele>
   </trkpt>
   <trkpt lat="37.024240000000006" lon="-122.04286">
    <ele>210.35</ele>
   </trkpt>
   <trkpt lat="37.023990000000005" lon="-122.04277">
    <ele>210.56000000000003</ele>
   </trkpt>
   <trkpt lat="37.02382" lon="-122.04268">
    <ele>209.86</ele>
   </trkpt>
   <trkpt lat="37.02373" lon="-122.04268">
    <ele>209.86</ele>
   </trkpt>
   <trkpt lat="37.02364" lon="-122.04268">
    <ele>208.64000000000001</ele>
   </trkpt>
   <trkpt lat="37.023520000000005" lon="-122.04273">
    <ele>208.19</ele>
   </trkpt>
   <trkpt lat="37.023250000000004" lon="-122.04277">
    <ele>207.14000000000001</ele>
   </trkpt>
   <trkpt lat="37.023210000000006" lon="-122.04281">
    <ele>207.14000000000001</ele>
   </trkpt>
   <trkpt lat="37.02282" lon="-122.04294000000002">
    <ele>205.93000000000004</ele>
   </trkpt>
   <trkpt lat="37.02275" lon="-122.0429">
    <ele>205.93000000000004</ele>
   </trkpt>
   <trkpt lat="37.02263" lon="-122.0429">
    <ele>205.79000000000002</ele>
   </trkpt>
   <trkpt lat="37.02237" lon="-122.04294000000002">
    <ele>205.21</ele>
   </trkpt>
   <trkpt lat="37.022130000000004" lon="-122.04299">
    <ele>204.62000000000003</ele>
   </trkpt>
   <trkpt lat="37.021800000000006" lon="-122.04313">
    <ele>202.08</ele>
   </trkpt>
   <trkpt lat="37.02169" lon="-122.04323000000001">
    <ele>200.8</ele>
   </trkpt>
   <trkpt lat="37.021640000000005" lon="-122.04335">
    <ele>199.65</ele>
   </trkpt>
   <trkpt lat="37.02112" lon="-122.04354000000001">
    <ele>191.13000000000002</ele>
   </trkpt>
   <trkpt lat="37.02091" lon="-122.04358">
    <ele>188.09</ele>
   </trkpt>
   <trkpt lat="37.02074" lon="-122.04353">
    <ele>186.04000000000002</ele>
   </trkpt>
   <trkpt lat="37.02071" lon="-122.04349">
    <ele>185.58</ele>
   </trkpt>
   <trkpt lat="37.02051" lon="-122.04345">
    <ele>184.15</ele>
   </trkpt>
   <trkpt lat="37.02038" lon="-122.0434">
    <ele>183.44000000000003</ele>
   </trkpt>
   <trkpt lat="37.020210000000006" lon="-122.0434">
    <ele>182.92000000000002</ele>
   </trkpt>
   <trkpt lat="37.019940000000005" lon="-122.04331">
    <ele>182.61</ele>
   </trkpt>
   <trkpt lat="37.019650000000006" lon="-122.04327">
    <ele>181.1</ele>
   </trkpt>
   <trkpt lat="37.01917" lon="-122.0434">
    <ele>174.44</ele>
   </trkpt>
   <trkpt lat="37.018910000000005" lon="-122.04353">
    <ele>170.79000000000002</ele>
   </trkpt>
   <trkpt lat="37.018860000000004" lon="-122.04358">
    <ele>168.88</ele>
   </trkpt>
   <trkpt lat="37.01881" lon="-122.04359000000001">
    <ele>168.88</ele>
   </trkpt>
   <trkpt lat="37.01876" lon="-122.04358">
    <ele>168.88</ele>
   </trkpt>
   <trkpt lat="37.01874" lon="-122.04371">
    <ele>168.09</ele>
   </trkpt>
   <trkpt lat="37.01865" lon="-122.04383000000001">
    <ele>167.47</ele>
   </trkpt>
   <trkpt lat="37.0187" lon="-122.04384">
    <ele>167.33</ele>
   </trkpt>
   <trkpt lat="37.018750000000004" lon="-122.04389">
    <ele>167.33</ele>
   </trkpt>
   <trkpt lat="37.018800000000006" lon="-122.04403">
    <ele>167.16</ele>
   </trkpt>
   <trkpt lat="37.019110000000005" lon="-122.04415000000002">
    <ele>167.03</ele>
   </trkpt>
   <trkpt lat="37.019220000000004" lon="-122.0442">
    <ele>166.98000000000002</ele>
   </trkpt>
   <trkpt lat="37.019270000000006" lon="-122.04424000000002">
    <ele>166.98000000000002</ele>
   </trkpt>
   <trkpt lat="37.019510000000004" lon="-122.04426000000001">
    <ele>166.25</ele>
   </trkpt>
   <trkpt lat="37.01961" lon="-122.04434">
    <ele>166.11</ele>
   </trkpt>
   <trkpt lat="37.01963000000001" lon="-122.04443">
    <ele>166.08</ele>
   </trkpt>
   <trkpt lat="37.01963000000001" lon="-122.04461">
    <ele>166.04000000000002</ele>
   </trkpt>
   <trkpt lat="37.019600000000004" lon="-122.04466000000001">
    <ele>165.97</ele>
   </trkpt>
   <trkpt lat="37.01932" lon="-122.04496">
    <ele>165.61</ele>
   </trkpt>
   <trkpt lat="37.01916000000001" lon="-122.04528">
    <ele>165.24</ele>
   </trkpt>
   <trkpt lat="37.019110000000005" lon="-122.04545000000002">
    <ele>165.21</ele>
   </trkpt>
   <trkpt lat="37.01915" lon="-122.04564">
    <ele>165.28</ele>
   </trkpt>
   <trkpt lat="37.01921" lon="-122.04574000000001">
    <ele>165.48000000000002</ele>
   </trkpt>
   <trkpt lat="37.019220000000004" lon="-122.04585000000002">
    <ele>165.87</ele>
   </trkpt>
   <trkpt lat="37.0193" lon="-122.04595">
    <ele>166.44</ele>
   </trkpt>
   <trkpt lat="37.01953" lon="-122.04604">
    <ele>170.06</ele>
   </trkpt>
   <trkpt lat="37.019850000000005" lon="-122.04621000000002">
    <ele>171.83</ele>
   </trkpt>
   <trkpt lat="37.01991" lon="-122.04621000000002">
    <ele>171.83</ele>
   </trkpt>
   <trkpt lat="37.02024" lon="-122.04635">
    <ele>175.81000000000003</ele>
   </trkpt>
   <trkpt lat="37.02049" lon="-122.04641000000001">
    <ele>177.65</ele>
   </trkpt>
   <trkpt lat="37.02069" lon="-122.04653">
    <ele>177.95000000000002</ele>
   </trkpt>
   <trkpt lat="37.020830000000004" lon="-122.04668000000001">
    <ele>177.69</ele>
   </trkpt>
   <trkpt lat="37.021080000000005" lon="-122.04689">
    <ele>176.32</ele>
   </trkpt>
   <trkpt lat="37.021330000000006" lon="-122.04716">
    <ele>175.79</ele>
   </trkpt>
   <trkpt lat="37.02168" lon="-122.04743">
    <ele>175.68</ele>
   </trkpt>
   <trkpt lat="37.021800000000006" lon="-122.04757000000001">
    <ele>175.87000000000003</ele>
   </trkpt>
   <trkpt lat="37.02212" lon="-122.04815">
    <ele>176.97</ele>
   </trkpt>
   <trkpt lat="37.022310000000004" lon="-122.04828">
    <ele>176.97</ele>
   </trkpt>
   <trkpt lat="37.02244" lon="-122.04832">
    <ele>176.8</ele>
   </trkpt>
   <trkpt lat="37.022580000000005" lon="-122.04832">
    <ele>176.77</ele>
   </trkpt>
   <trkpt lat="37.02268" lon="-122.04837">
    <ele>176.8</ele>
   </trkpt>
   <trkpt lat="37.022710000000004" lon="-122.04842000000001">
    <ele>176.8</ele>
   </trkpt>
   <trkpt lat="37.022760000000005" lon="-122.04855">
    <ele>176.96</ele>
   </trkpt>
   <trkpt lat="37.022780000000004" lon="-122.04885000000002">
    <ele>176.3</ele>
   </trkpt>
   <trkpt lat="37.022830000000006" lon="-122.04904">
    <ele>175.04</ele>
   </trkpt>
   <trkpt lat="37.022830000000006" lon="-122.04923000000001">
    <ele>172.89000000000001</ele>
   </trkpt>
   <trkpt lat="37.02279" lon="-122.04932000000001">
    <ele>172.18000000000004</ele>
   </trkpt>
   <trkpt lat="37.02277" lon="-122.04948000000002">
    <ele>172.1</ele>
   </trkpt>
   <trkpt lat="37.02279" lon="-122.04958">
    <ele>172.66</ele>
   </trkpt>
   <trkpt lat="37.02277" lon="-122.04962">
    <ele>173.06</ele>
   </trkpt>
   <trkpt lat="37.022940000000006" lon="-122.04985">
    <ele>175.22</ele>
   </trkpt>
   <trkpt lat="37.02304" lon="-122.05007">
    <ele>176.09000000000003</ele>
   </trkpt>
   <trkpt lat="37.02304" lon="-122.05016">
    <ele>176.11</ele>
   </trkpt>
   <trkpt lat="37.02308" lon="-122.05038">
    <ele>175.95000000000002</ele>
   </trkpt>
   <trkpt lat="37.02304" lon="-122.05087">
    <ele>175.32</ele>
   </trkpt>
   <trkpt lat="37.023070000000004" lon="-122.05101">
    <ele>175.19</ele>
   </trkpt>
   <trkpt lat="37.023140000000005" lon="-122.05182">
    <ele>175.25</ele>
   </trkpt>
   <trkpt lat="37.0232" lon="-122.05204">
    <ele>175.44</ele>
   </trkpt>
   <trkpt lat="37.023340000000005" lon="-122.05223000000001">
    <ele>176.32</ele>
   </trkpt>
   <trkpt lat="37.02338" lon="-122.0524">
    <ele>177.76</ele>
   </trkpt>
   <trkpt lat="37.02342" lon="-122.05244">
    <ele>177.76</ele>
   </trkpt>
   <trkpt lat="37.02349" lon="-122.05272000000001">
    <ele>180.38</ele>
   </trkpt>
   <trkpt lat="37.02356" lon="-122.05281000000001">
    <ele>181.03000000000003</ele>
   </trkpt>
   <trkpt lat="37.02357000000001" lon="-122.05289">
    <ele>181.3</ele>
   </trkpt>
   <trkpt lat="37.02371" lon="-122.05307">
    <ele>182.32</ele>
   </trkpt>
   <trkpt lat="37.023810000000005" lon="-122.05315000000002">
    <ele>182.67000000000002</ele>
   </trkpt>
   <trkpt lat="37.024240000000006" lon="-122.05317000000001">
    <ele>183.65</ele>
   </trkpt>
   <trkpt lat="37.02461" lon="-122.05311">
    <ele>183.9</ele>
   </trkpt>
   <trkpt lat="37.025110000000005" lon="-122.05308000000001">
    <ele>183.48</ele>
   </trkpt>
   <trkpt lat="37.02539" lon="-122.05303">
    <ele>182.82</ele>
   </trkpt>
   <trkpt lat="37.025580000000005" lon="-122.05302">
    <ele>182.71</ele>
   </trkpt>
   <trkpt lat="37.025780000000005" lon="-122.05311">
    <ele>182.45</ele>
   </trkpt>
   <trkpt lat="37.026320000000005" lon="-122.05338">
    <ele>178.8</ele>
   </trkpt>
   <trkpt lat="37.02647" lon="-122.05343">
    <ele>176.03000000000003</ele>
   </trkpt>
   <trkpt lat="37.02657" lon="-122.05343">
    <ele>176.03000000000003</ele>
   </trkpt>
   <trkpt lat="37.026700000000005" lon="-122.05334">
    <ele>174.94</ele>
   </trkpt>
   <trkpt lat="37.02689" lon="-122.05316">
    <ele>170.83</ele>
   </trkpt>
   <trkpt lat="37.02727" lon="-122.05254000000001">
    <ele>162.16000000000003</ele>
   </trkpt>
   <trkpt lat="37.02749" lon="-122.05226">
    <ele>155.97000000000003</ele>
   </trkpt>
   <trkpt lat="37.02758" lon="-122.05217">
    <ele>155.14</ele>
   </trkpt>
   <trkpt lat="37.02798000000001" lon="-122.05203000000002">
    <ele>151.60000000000002</ele>
   </trkpt>
   <trkpt lat="37.028040000000004" lon="-122.05195">
    <ele>148.52</ele>
   </trkpt>
   <trkpt lat="37.028560000000006" lon="-122.05114">
    <ele>137.79000000000002</ele>
   </trkpt>
   <trkpt lat="37.028650000000006" lon="-122.05105">
    <ele>134.14000000000001</ele>
   </trkpt>
   <trkpt lat="37.02872" lon="-122.05102000000001">
    <ele>132.43</ele>
   </trkpt>
   <trkpt lat="37.02877" lon="-122.05102000000001">
    <ele>132.43</ele>
   </trkpt>
   <trkpt lat="37.02888" lon="-122.0511">
    <ele>132.43</ele>
   </trkpt>
   <trkpt lat="37.029180000000004" lon="-122.05141">
    <ele>123.38</ele>
   </trkpt>
   <trkpt lat="37.02938" lon="-122.05151000000001">
    <ele>120.95000000000002</ele>
   </trkpt>
   <trkpt lat="37.02966" lon="-122.05172">
    <ele>116.82000000000001</ele>
   </trkpt>
   <trkpt lat="37.029740000000004" lon="-122.05186">
    <ele>115.44000000000001</ele>
   </trkpt>
   <trkpt lat="37.029790000000006" lon="-122.05199">
    <ele>112.60000000000001</ele>
   </trkpt>
   <trkpt lat="37.029830000000004" lon="-122.05221000000002">
    <ele>110.63000000000001</ele>
   </trkpt>
   <trkpt lat="37.02989" lon="-122.05299000000001">
    <ele>104.58</ele>
   </trkpt>
   <trkpt lat="37.02998" lon="-122.05332000000001">
    <ele>106.08000000000001</ele>
   </trkpt>
   <trkpt lat="37.030060000000006" lon="-122.05383">
    <ele>109.15</ele>
   </trkpt>
   <trkpt lat="37.030120000000004" lon="-122.05396">
    <ele>109.12</ele>
   </trkpt>
   <trkpt lat="37.03025" lon="-122.05414">
    <ele>108.05000000000001</ele>
   </trkpt>
   <trkpt lat="37.03074" lon="-122.05445000000002">
    <ele>102.77000000000001</ele>
   </trkpt>
   <trkpt lat="37.03081" lon="-122.0545">
    <ele>102.5</ele>
   </trkpt>
   <trkpt lat="37.031110000000005" lon="-122.05496000000001">
    <ele>100.74000000000001</ele>
   </trkpt>
   <trkpt lat="37.031240000000004" lon="-122.05508">
    <ele>99.27000000000001</ele>
   </trkpt>
   <trkpt lat="37.03157" lon="-122.05526">
    <ele>96.2</ele>
   </trkpt>
   <trkpt lat="37.031780000000005" lon="-122.05553">
    <ele>91.53000000000002</ele>
   </trkpt>
   <trkpt lat="37.03193" lon="-122.05566">
    <ele>91.02</ele>
   </trkpt>
   <trkpt lat="37.03246" lon="-122.05656">
    <ele>80.63000000000001</ele>
   </trkpt>
   <trkpt lat="37.032770000000006" lon="-122.05695000000001">
    <ele>74.67</ele>
   </trkpt>
   <trkpt lat="37.033080000000005" lon="-122.05724000000001">
    <ele>73.94</ele>
   </trkpt>
   <trkpt lat="37.03346000041847" lon="-122.05756499835262">
    <ele>75.19000000000001</ele>
   </trkpt>
   <trkpt lat="37.033840000000005" lon="-122.05789000000001">
    <ele>75.41</ele>
   </trkpt>
   <trkpt lat="37.03414" lon="-122.05818000000001">
    <ele>75.22000000000001</ele>
   </trkpt>
   <trkpt lat="37.03454" lon="-122.05831">
    <ele>78.08000000000001</ele>
   </trkpt>
   <trkpt lat="37.034850000000006" lon="-122.05844">
    <ele>78.77000000000001</ele>
   </trkpt>
   <trkpt lat="37.034980000000004" lon="-122.05868000000001">
    <ele>78.94000000000001</ele>
   </trkpt>
   <trkpt lat="37.03515" lon="-122.05871">
    <ele>79.45</ele>
   </trkpt>
   <trkpt lat="37.03539" lon="-122.05862">
    <ele>80.45</ele>
   </trkpt>
   <trkpt lat="37.03551" lon="-122.05875">
    <ele>80.99000000000001</ele>
   </trkpt>
   <trkpt lat="37.03571" lon="-122.05884">
    <ele>81.62</ele>
   </trkpt>
   <trkpt lat="37.0358" lon="-122.05893">
    <ele>82.04</ele>
   </trkpt>
   <trkpt lat="37.036" lon="-122.0588">
    <ele>83.64</ele>
   </trkpt>
   <trkpt lat="37.036280000000005" lon="-122.05848">
    <ele>87.26</ele>
   </trkpt>
   <trkpt lat="37.036500000000004" lon="-122.05851000000001">
    <ele>90.93</ele>
   </trkpt>
   <trkpt lat="37.036680000000004" lon="-122.05866">
    <ele>92.79</ele>
   </trkpt>
   <trkpt lat="37.03679" lon="-122.05867">
    <ele>93.25000000000001</ele>
   </trkpt>
   <trkpt lat="37.03678" lon="-122.05867">
    <ele>93.25000000000001</ele>
   </trkpt>
   <trkpt lat="37.03681" lon="-122.05867">
    <ele>93.25000000000001</ele>
   </trkpt>
   <trkpt lat="37.036910000000006" lon="-122.05862">
    <ele>93.68</ele>
   </trkpt>
   <trkpt lat="37.03696" lon="-122.05854000000001">
    <ele>93.92</ele>
   </trkpt>
   <trkpt lat="37.037020000000005" lon="-122.05851000000001">
    <ele>93.92</ele>
   </trkpt>
   <trkpt lat="37.03703" lon="-122.05846000000001">
    <ele>93.94000000000001</ele>
   </trkpt>
   <trkpt lat="37.037020000000005" lon="-122.05851000000001">
    <ele>93.92</ele>
   </trkpt>
   <trkpt lat="37.037060000000004" lon="-122.05863000000001">
    <ele>93.72000000000001</ele>
   </trkpt>
   <trkpt lat="37.0371" lon="-122.05867">
    <ele>93.72000000000001</ele>
   </trkpt>
   <trkpt lat="37.03739" lon="-122.05875">
    <ele>93.31</ele>
   </trkpt>
   <trkpt lat="37.03759" lon="-122.05875">
    <ele>92.67</ele>
   </trkpt>
   <trkpt lat="37.03773" lon="-122.05879000000002">
    <ele>92.05000000000001</ele>
   </trkpt>
   <trkpt lat="37.03795" lon="-122.05889">
    <ele>90.87</ele>
   </trkpt>
   <trkpt lat="37.038230000000006" lon="-122.05926000000001">
    <ele>88.63</ele>
   </trkpt>
   <trkpt lat="37.03826" lon="-122.05942">
    <ele>88.94</ele>
   </trkpt>
   <trkpt lat="37.03833" lon="-122.05947">
    <ele>89.34</ele>
   </trkpt>
   <trkpt lat="37.038380000000004" lon="-122.05942">
    <ele>89.34</ele>
   </trkpt>
   <trkpt lat="37.038430000000005" lon="-122.05942">
    <ele>90.2</ele>
   </trkpt>
   <trkpt lat="37.038470000000004" lon="-122.05948000000001">
    <ele>90.2</ele>
   </trkpt>
   <trkpt lat="37.03855" lon="-122.05956">
    <ele>90.73</ele>
   </trkpt>
   <trkpt lat="37.03873" lon="-122.05956">
    <ele>91.42</ele>
   </trkpt>
   <trkpt lat="37.0388" lon="-122.05965">
    <ele>91.68</ele>
   </trkpt>
   <trkpt lat="37.038810000000005" lon="-122.05978">
    <ele>91.69000000000001</ele>
   </trkpt>
   <trkpt lat="37.038900000000005" lon="-122.05984000000001">
    <ele>91.61000000000001</ele>
   </trkpt>
   <trkpt lat="37.038990000000005" lon="-122.0601">
    <ele>89.74000000000001</ele>
   </trkpt>
   <trkpt lat="37.03909" lon="-122.06029000000001">
    <ele>89.23</ele>
   </trkpt>
   <trkpt lat="37.03922" lon="-122.06041">
    <ele>88.59</ele>
   </trkpt>
   <trkpt lat="37.0394" lon="-122.06038000000001">
    <ele>88.24000000000001</ele>
   </trkpt>
   <trkpt lat="37.03949" lon="-122.06053000000001">
    <ele>87.95</ele>
   </trkpt>
   <trkpt lat="37.039570000000005" lon="-122.06054">
    <ele>87.95</ele>
   </trkpt>
   <trkpt lat="37.039730000000006" lon="-122.06086">
    <ele>87.83</ele>
   </trkpt>
   <trkpt lat="37.039820000000006" lon="-122.06120000000001">
    <ele>88.03000000000002</ele>
   </trkpt>
   <trkpt lat="37.03994" lon="-122.06123000000001">
    <ele>89.19</ele>
   </trkpt>
   <trkpt lat="37.04003" lon="-122.06130000000002">
    <ele>87.59</ele>
   </trkpt>
   <trkpt lat="37.04023" lon="-122.06148">
    <ele>89.65</ele>
   </trkpt>
   <trkpt lat="37.040420000000005" lon="-122.06164000000001">
    <ele>90.08000000000001</ele>
   </trkpt>
   <trkpt lat="37.04041" lon="-122.06164000000001">
    <ele>90.08000000000001</ele>
   </trkpt>
   <trkpt lat="37.040490000000005" lon="-122.06170000000002">
    <ele>89.94</ele>
   </trkpt>
  </trkseg>
 </trk>
</gpx>
